1 53801U 22111AE  22283.58334491 -.00021457  00000-0 -14851-3 0  9991
2 53801  53.2153 120.9713 0001359 107.5433 303.7131 15.73253121  1304